{
  "type": "FeatureCollection",
  "features": [
    {
      "type": "Feature",
      "properties": {
        "norad_id": 66718,
        "name": "FLOCK 4H-15",
        "group": "last-30-days",
        "lat": -80.95548376030185,
        "lon": -166.67869975894024,
        "alt_km": 519.7862007919794,
        "timestamp": "2025-12-22T22:44:19.650328+00:00",
        "meta_object_name": "FLOCK 4H-15",
        "meta_object_id": "2025-276BE",
        "meta_epoch": "2025-12-22T12:04:36.458400",
        "meta_mean_motion": 15.17098205,
        "meta_eccentricity": 0.00031554,
        "meta_inclination": 97.4424,
        "meta_ra_of_asc_node": 68.091,
        "meta_arg_of_pericenter": 271.4319,
        "meta_mean_anomaly": 88.6553,
        "meta_ephemeris_type": 0,
        "meta_classification_type": "U",
        "meta_norad_cat_id": 66718,
        "meta_element_set_no": 999,
        "meta_rev_at_epoch": 360,
        "meta_bstar": 0.00052583024,
        "meta_mean_motion_dot": 0.00010361,
        "meta_mean_motion_ddot": 0,
        "tle_line1": "1 66718U 25276BE  25356.50319975  .00010361  00000+0  52583-3 0  9996",
        "tle_line2": "2 66718  97.4424  68.0910 0003155 271.4319  88.6553 15.17098205  3607"
      },
      "geometry": {
        "type": "Point",
        "coordinates": [
          -166.67869975894024,
          -80.95548376030185
        ]
      }
    },
    {
      "type": "Feature",
      "properties": {
        "norad_id": 66719,
        "name": "FLOCK 4H-16",
        "group": "last-30-days",
        "lat": -81.50610451590508,
        "lon": 129.64857833580015,
        "alt_km": 519.5310897047557,
        "timestamp": "2025-12-22T22:44:19.650368+00:00",
        "meta_object_name": "FLOCK 4H-16",
        "meta_object_id": "2025-276BF",
        "meta_epoch": "2025-12-22T10:27:16.085376",
        "meta_mean_motion": 15.17238053,
        "meta_eccentricity": 0.00035043,
        "meta_inclination": 97.4446,
        "meta_ra_of_asc_node": 68.0328,
        "meta_arg_of_pericenter": 238.4995,
        "meta_mean_anomaly": 121.5897,
        "meta_ephemeris_type": 0,
        "meta_classification_type": "U",
        "meta_norad_cat_id": 66719,
        "meta_element_set_no": 999,
        "meta_rev_at_epoch": 359,
        "meta_bstar": 0.0016888335,
        "meta_mean_motion_dot": 0.00033663,
        "meta_mean_motion_ddot": 0,
        "tle_line1": "1 66719U 25276BF  25356.43560284  .00033663  00000+0  16888-2 0  9997",
        "tle_line2": "2 66719  97.4446  68.0328 0003504 238.4995 121.5897 15.17238053  3599"
      },
      "geometry": {
        "type": "Point",
        "coordinates": [
          129.64857833580015,
          -81.50610451590508
        ]
      }
    },
    {
      "type": "Feature",
      "properties": {
        "norad_id": 66720,
        "name": "FLOCK 4H-17",
        "group": "last-30-days",
        "lat": -15.316029664127251,
        "lon": 70.62099999517646,
        "alt_km": 518.1734231493956,
        "timestamp": "2025-12-22T22:44:19.650379+00:00",
        "meta_object_name": "FLOCK 4H-17",
        "meta_object_id": "2025-276BG",
        "meta_epoch": "2025-12-22T11:43:58.399104",
        "meta_mean_motion": 15.18053418,
        "meta_eccentricity": 0.0002663,
        "meta_inclination": 97.4443,
        "meta_ra_of_asc_node": 68.1177,
        "meta_arg_of_pericenter": 193.3388,
        "meta_mean_anomaly": 166.7776,
        "meta_ephemeris_type": 0,
        "meta_classification_type": "U",
        "meta_norad_cat_id": 66720,
        "meta_element_set_no": 999,
        "meta_rev_at_epoch": 360,
        "meta_bstar": 0.00045325254,
        "meta_mean_motion_dot": 9.168e-05,
        "meta_mean_motion_ddot": 0,
        "tle_line1": "1 66720U 25276BG  25356.48887036  .00009168  00000+0  45325-3 0  9993",
        "tle_line2": "2 66720  97.4443  68.1177 0002663 193.3388 166.7776 15.18053418  3601"
      },
      "geometry": {
        "type": "Point",
        "coordinates": [
          70.62099999517646,
          -15.316029664127251
        ]
      }
    },
    {
      "type": "Feature",
      "properties": {
        "norad_id": 66721,
        "name": "FLOCK 4H-18",
        "group": "last-30-days",
        "lat": -82.24268522125858,
        "lon": 174.9585956453856,
        "alt_km": 520.0853735757228,
        "timestamp": "2025-12-22T22:44:19.650389+00:00",
        "meta_object_name": "FLOCK 4H-18",
        "meta_object_id": "2025-276BH",
        "meta_epoch": "2025-12-22T12:03:50.466816",
        "meta_mean_motion": 15.17134733,
        "meta_eccentricity": 0.00026954,
        "meta_inclination": 97.4385,
        "meta_ra_of_asc_node": 68.0772,
        "meta_arg_of_pericenter": 287.9471,
        "meta_mean_anomaly": 72.1469,
        "meta_ephemeris_type": 0,
        "meta_classification_type": "U",
        "meta_norad_cat_id": 66721,
        "meta_element_set_no": 999,
        "meta_rev_at_epoch": 360,
        "meta_bstar": 0.0005205227,
        "meta_mean_motion_dot": 0.00010266,
        "meta_mean_motion_ddot": 0,
        "tle_line1": "1 66721U 25276BH  25356.50266744  .00010266  00000+0  52052-3 0  9990",
        "tle_line2": "2 66721  97.4385  68.0772 0002695 287.9471  72.1469 15.17134733  3603"
      },
      "geometry": {
        "type": "Point",
        "coordinates": [
          174.9585956453856,
          -82.24268522125858
        ]
      }
    },
    {
      "type": "Feature",
      "properties": {
        "norad_id": 66722,
        "name": "FLOCK 4H-19",
        "group": "last-30-days",
        "lat": 0.036522800297242496,
        "lon": 68.54938646637149,
        "alt_km": 515.6807698077437,
        "timestamp": "2025-12-22T22:44:19.650399+00:00",
        "meta_object_name": "FLOCK 4H-19",
        "meta_object_id": "2025-276BJ",
        "meta_epoch": "2025-12-22T11:39:57.758688",
        "meta_mean_motion": 15.18223568,
        "meta_eccentricity": 0.00022541,
        "meta_inclination": 97.4391,
        "meta_ra_of_asc_node": 68.1005,
        "meta_arg_of_pericenter": 157.8364,
        "meta_mean_anomaly": 202.2968,
        "meta_ephemeris_type": 0,
        "meta_classification_type": "U",
        "meta_norad_cat_id": 66722,
        "meta_element_set_no": 999,
        "meta_rev_at_epoch": 289,
        "meta_bstar": 0.00056106452,
        "meta_mean_motion_dot": 0.00011424,
        "meta_mean_motion_ddot": 0,
        "tle_line1": "1 66722U 25276BJ  25356.48608517  .00011424  00000+0  56106-3 0  9997",
        "tle_line2": "2 66722  97.4391  68.1005 0002254 157.8364 202.2968 15.18223568  2894"
      },
      "geometry": {
        "type": "Point",
        "coordinates": [
          68.54938646637149,
          0.036522800297242496
        ]
      }
    },
    {
      "type": "Feature",
      "properties": {
        "norad_id": 66723,
        "name": "FLOCK 4H-20",
        "group": "last-30-days",
        "lat": 3.4286176780551862,
        "lon": 68.12077025302202,
        "alt_km": 515.5188391513511,
        "timestamp": "2025-12-22T22:44:19.650409+00:00",
        "meta_object_name": "FLOCK 4H-20",
        "meta_object_id": "2025-276BK",
        "meta_epoch": "2025-12-22T11:39:05.435712",
        "meta_mean_motion": 15.18292116,
        "meta_eccentricity": 0.00028489,
        "meta_inclination": 97.4427,
        "meta_ra_of_asc_node": 68.115,
        "meta_arg_of_pericenter": 173.3097,
        "meta_mean_anomaly": 186.8176,
        "meta_ephemeris_type": 0,
        "meta_classification_type": "U",
        "meta_norad_cat_id": 66723,
        "meta_element_set_no": 999,
        "meta_rev_at_epoch": 285,
        "meta_bstar": 0.000579718,
        "meta_mean_motion_dot": 0.0001183,
        "meta_mean_motion_ddot": 0,
        "tle_line1": "1 66723U 25276BK  25356.48547958  .00011830  00000+0  57972-3 0  9992",
        "tle_line2": "2 66723  97.4427  68.1150 0002848 173.3097 186.8176 15.18292116  2850"
      },
      "geometry": {
        "type": "Point",
        "coordinates": [
          68.12077025302202,
          3.4286176780551862
        ]
      }
    },
    {
      "type": "Feature",
      "properties": {
        "norad_id": 66724,
        "name": "FLOCK 4H-21",
        "group": "last-30-days",
        "lat": 6.374753300232002,
        "lon": 67.72032637762563,
        "alt_km": 514.6917117700796,
        "timestamp": "2025-12-22T22:44:19.650419+00:00",
        "meta_object_name": "FLOCK 4H-21",
        "meta_object_id": "2025-276BL",
        "meta_epoch": "2025-12-22T11:38:19.970304",
        "meta_mean_motion": 15.18350502,
        "meta_eccentricity": 0.00025847,
        "meta_inclination": 97.4393,
        "meta_ra_of_asc_node": 68.1019,
        "meta_arg_of_pericenter": 168.874,
        "meta_mean_anomaly": 191.2552,
        "meta_ephemeris_type": 0,
        "meta_classification_type": "U",
        "meta_norad_cat_id": 66724,
        "meta_element_set_no": 999,
        "meta_rev_at_epoch": 285,
        "meta_bstar": 0.00057441788,
        "meta_mean_motion_dot": 0.00011741,
        "meta_mean_motion_ddot": 0,
        "tle_line1": "1 66724U 25276BL  25356.48495336  .00011741  00000+0  57442-3 0  9998",
        "tle_line2": "2 66724  97.4393  68.1019 0002584 168.8740 191.2552 15.18350502  2850"
      },
      "geometry": {
        "type": "Point",
        "coordinates": [
          67.72032637762563,
          6.374753300232002
        ]
      }
    }
  ]
}